[{"OBJECT_NAME":"IRIDIUM 165","OBJECT_ID":"2018-061D","EPOCH":"2026-03-09T12:28:22.404000","MEAN_MOTION":14.34217296,"ECCENTRICITY":0.00020877,"INCLINATION":86.3917,"RA_OF_ASC_NODE":98.4934,"ARG_OF_PERICENTER":96.9181,"MEAN_ANOMALY":263.2252,"EPHEMERIS_TYPE":0,"CLASSIFICATION_TYPE":"U","NORAD_CAT_ID":43572,"ELEMENT_SET_NO":999,"REV_AT_EPOCH":39910,"BSTAR":7.29473e-7,"MEAN_MOTION_DOT":2.2e-7,"MEAN_MOTION_DDOT":0},{"OBJECT_NAME":"CZ-4 DEB","OBJECT_ID":"1990-081AY","EPOCH":"2026-03-09T14:02:11.987808","MEAN_MOTION":14.2949261,"ECCENTRICITY":0.0174609,"INCLINATION":99.2103,"RA_OF_ASC_NODE":287.3901,"ARG_OF_PERICENTER":163.9364,"MEAN_ANOMALY":196.7451,"EPHEMERIS_TYPE":0,"CLASSIFICATION_TYPE":"U","NORAD_CAT_ID":20888,"ELEMENT_SET_NO":999,"REV_AT_EPOCH":81298,"BSTAR":0.00053359,"MEAN_MOTION_DOT":1.555e-5,"MEAN_MOTION_DDOT":0}]
